{
  "norad_id": 42767,
  "name": "CARTOSAT-2E",
  "history": [
    {
      "epoch": "2026-03-27T16:52:06.735072Z",
      "apogee_km": 509.9691009512344,
      "perigee_km": 506.39578979103135,
      "latitude_deg": 2.3048777719596037e-06,
      "longitude_deg": 69.64878047933438,
      "height_km": 512.6911665595519,
      "semi_major_axis_km": 6886.319445371133,
      "eccentricity": 0.00025945,
      "inclination_deg": 97.4362,
      "raan_deg": 147.8107,
      "arg_perigee_deg": 217.4798,
      "mean_anomaly_deg": 142.6256,
      "mean_motion_rev_day": 15.19224706
    }
  ]
}